{
    "links": {
        "self": "http://www.neowsapp.com/rest/v1/neo/3736673?api_key=iIulBulltgU6a56xZRHN4H3l9WmuAYTsLGpBGhQ2"
    },
    "id": "3736673",
    "neo_reference_id": "3736673",
    "name": "(2015 XV351)",
    "designation": "2015 XV351",
    "nasa_jpl_url": "http://ssd.jpl.nasa.gov/sbdb.cgi?sstr=3736673",
    "absolute_magnitude_h": 26.0,
    "estimated_diameter": {
        "kilometers": {
            "estimated_diameter_min": 0.0167708462,
            "estimated_diameter_max": 0.0375007522
        },
        "meters": {
            "estimated_diameter_min": 16.7708462163,
            "estimated_diameter_max": 37.5007521798
        },
        "miles": {
            "estimated_diameter_min": 0.0104209175,
            "estimated_diameter_max": 0.0233018799
        },
        "feet": {
            "estimated_diameter_min": 55.0224631002,
            "estimated_diameter_max": 123.0339677816
        }
    },
    "is_potentially_hazardous_asteroid": false,
    "close_approach_data": [
        {
            "close_approach_date": "2009-03-01",
            "close_approach_date_full": "2009-Mar-01 00:50",
            "epoch_date_close_approach": 1235868600000,
            "relative_velocity": {
                "kilometers_per_second": "16.0033602066",
                "kilometers_per_hour": "57612.0967438205",
                "miles_per_hour": "35797.9164461811"
            },
            "miss_distance": {
                "astronomical": "0.299180642",
                "lunar": "116.381269738",
                "kilometers": "44756786.78843254",
                "miles": "27810577.716707452"
            },
            "orbiting_body": "Earth"
        },
        {
            "close_approach_date": "2015-12-29",
            "close_approach_date_full": "2015-Dec-29 01:12",
            "epoch_date_close_approach": 1451351520000,
            "relative_velocity": {
                "kilometers_per_second": "6.2108812697",
                "kilometers_per_hour": "22359.1725709251",
                "miles_per_hour": "13893.1203121951"
            },
            "miss_distance": {
                "astronomical": "0.013770416",
                "lunar": "5.356691824",
                "kilometers": "2060024.90261392",
                "miles": "1280040.118235296"
            },
            "orbiting_body": "Earth"
        }
    ],
    "orbital_data": {
        "orbit_id": "6",
        "orbit_determination_date": "2017-04-06 08:29:53",
        "first_observation_date": "2015-12-09",
        "last_observation_date": "2016-02-10",
        "data_arc_in_days": 63,
        "observations_used": 15,
        "orbit_uncertainty": "7",
        "minimum_orbit_intersection": ".00546434",
        "jupiter_tisserand_invariant": "4.009",
        "epoch_osculation": "2459000.5",
        "eccentricity": ".4461492482511838",
        "semi_major_axis": "1.751175883461976",
        "inclination": "1.604663830912459",
        "ascending_node_longitude": "75.67754423318243",
        "orbital_period": "846.433957809665",
        "perihelion_distance": ".9698900794998125",
        "perihelion_argument": "29.1349042685071",
        "aphelion_distance": "2.532461687424139",
        "perihelion_time": "2459085.784102353194",
        "mean_anomaly": "323.7274986856639",
        "mean_motion": ".4253137491453906",
        "equinox": "J2000",
        "orbit_class": {
            "orbit_class_type": "APO",
            "orbit_class_description": "Near-Earth asteroid orbits which cross the Earth’s orbit similar to that of 1862 Apollo",
            "orbit_class_range": "a (semi-major axis) > 1.0 AU; q (perihelion) < 1.017 AU"
        }
    },
    "is_sentry_object": false
}